[
    {
        "Altitude(m)": 604221.2094086292,
        "Argument of Periapsis(deg)": 0.0,
        "Eccentricity": 0.0,
        "Inclination(deg)": 60.0,
        "Latitude(deg)": 14.117274831855521,
        "Longitude(deg)": 3.3341224859646474,
        "Mean Anomaly(deg)": 16.363599999999998,
        "RAAN(deg)": 95.0,
        "Satellite Name": "Test1 419",
        "Satellite Number": 419,
        "Semi-Major Axis(m)": 6980739.136638005,
        "Time(s)": 0
    },
    {
        "Altitude(m)": 604235.3506121357,
        "Argument of Periapsis(deg)": 0.00010418945913296404,
        "Eccentricity": 0.0,
        "Inclination(deg)": 60.0,
        "Latitude(deg)": 14.651672227784136,
        "Longitude(deg)": 3.622568230603656,
        "Mean Anomaly(deg)": 16.983706145461838,
        "RAAN(deg)": 94.99957995086027,
        "Satellite Name": "Test1 419",
        "Satellite Number": 419,
        "Semi-Major Axis(m)": 6980739.136638005,
        "Time(s)": 10
    },
    {
        "Altitude(m)": 604252.388920649,
        "Argument of Periapsis(deg)": 0.0002083789182659281,
        "Eccentricity": 0.0,
        "Inclination(deg)": 60.0,
        "Latitude(deg)": 15.185579814143106,
        "Longitude(deg)": 3.912616973904012,
        "Mean Anomaly(deg)": 17.603812290923667,
        "RAAN(deg)": 94.99915990172052,
        "Satellite Name": "Test1 419",
        "Satellite Number": 419,
        "Semi-Major Axis(m)": 6980739.136638005,
        "Time(s)": 20
    },
    {
        "Altitude(m)": 604272.2925052608,
        "Argument of Periapsis(deg)": 0.00031256837739889213,
        "Eccentricity": 0.0,
        "Inclination(deg)": 60.0,
        "Latitude(deg)": 15.718976286461112,
        "Longitude(deg)": 4.20433622794966,
        "Mean Anomaly(deg)": 18.223918436385496,
        "RAAN(deg)": 94.99873985258078,
        "Satellite Name": "Test1 419",
        "Satellite Number": 419,
        "Semi-Major Axis(m)": 6980739.136638005,
        "Time(s)": 30
    },
    {
        "Altitude(m)": 604295.0282623341,
        "Argument of Periapsis(deg)": 0.0004167578365318562,
        "Eccentricity": 0.0,
        "Inclination(deg)": 60.0,
        "Latitude(deg)": 16.25184000455242,
        "Longitude(deg)": 4.497795027442524,
        "Mean Anomaly(deg)": 18.84402458184732,
        "RAAN(deg)": 94.99831980344103,
        "Satellite Name": "Test1 419",
        "Satellite Number": 419,
        "Semi-Major Axis(m)": 6980739.136638005,
        "Time(s)": 40
    },
    {
        "Altitude(m)": 604320.5618324289,
        "Argument of Periapsis(deg)": 0.0005209472956648203,
        "Eccentricity": 0.0,
        "Inclination(deg)": 60.0,
        "Latitude(deg)": 16.784148976478637,
        "Longitude(deg)": 4.7930629652839505,
        "Mean Anomaly(deg)": 19.46413072730915,
        "RAAN(deg)": 94.99789975430129,
        "Satellite Name": "Test1 419",
        "Satellite Number": 419,
        "Semi-Major Axis(m)": 6980739.136638005,
        "Time(s)": 50
    },
    {
        "Altitude(m)": 604348.8576198296,
        "Argument of Periapsis(deg)": 0.0006251367547977843,
        "Eccentricity": 0.0,
        "Inclination(deg)": 60.0,
        "Latitude(deg)": 17.315880842030253,
        "Longitude(deg)": 5.09021074188301,
        "Mean Anomaly(deg)": 20.08423687277099,
        "RAAN(deg)": 94.99747970516155,
        "Satellite Name": "Test1 419",
        "Satellite Number": 419,
        "Semi-Major Axis(m)": 6980739.136638005,
        "Time(s)": 60
    },
    {
        "Altitude(m)": 604379.8788126518,
        "Argument of Periapsis(deg)": 0.0007293262139307483,
        "Eccentricity": 0.0,
        "Inclination(deg)": 60.0,
        "Latitude(deg)": 17.847012855701728,
        "Longitude(deg)": 5.389310715344308,
        "Mean Anomaly(deg)": 20.704343018232805,
        "RAAN(deg)": 94.9970596560218,
        "Satellite Name": "Test1 419",
        "Satellite Number": 419,
        "Semi-Major Axis(m)": 6980739.136638005,
        "Time(s)": 70
    },
    {
        "Altitude(m)": 604413.5874035207,
        "Argument of Periapsis(deg)": 0.0008335156730637124,
        "Eccentricity": 0.0,
        "Inclination(deg)": 60.0,
        "Latitude(deg)": 18.37752186913355,
        "Longitude(deg)": 5.690435939686334,
        "Mean Anomaly(deg)": 21.324449163694645,
        "RAAN(deg)": 94.99663960688207,
        "Satellite Name": "Test1 419",
        "Satellite Number": 419,
        "Semi-Major Axis(m)": 6980739.136638005,
        "Time(s)": 80
    },
    {
        "Altitude(m)": 604449.9442108099,
        "Argument of Periapsis(deg)": 0.0009377051321966765,
        "Eccentricity": 0.0,
        "Inclination(deg)": 60.0,
        "Latitude(deg)": 18.907384313001923,
        "Longitude(deg)": 5.993660716858766,
        "Mean Anomaly(deg)": 21.944555309156485,
        "RAAN(deg)": 94.99621955774232,
        "Satellite Name": "Test1 419",
        "Satellite Number": 419,
        "Semi-Major Axis(m)": 6980739.136638005,
        "Time(s)": 90
    },
    {
        "Altitude(m)": 604488.9089004602,
        "Argument of Periapsis(deg)": 0.0010418945913296407,
        "Eccentricity": 0.0,
        "Inclination(deg)": 60.0,
        "Latitude(deg)": 19.436576178327883,
        "Longitude(deg)": 6.299061149708939,
        "Mean Anomaly(deg)": 22.564661454618314,
        "RAAN(deg)": 94.99579950860257,
        "Satellite Name": "Test1 419",
        "Satellite Number": 419,
        "Semi-Major Axis(m)": 6980739.136638005,
        "Time(s)": 100
    },
    {
        "Altitude(m)": 604530.4400082914,
        "Argument of Periapsis(deg)": 0.0011460840504626045,
        "Eccentricity": 0.0,
        "Inclination(deg)": 60.0,
        "Latitude(deg)": 19.965072997176883,
        "Longitude(deg)": 6.606714183042098,
        "Mean Anomaly(deg)": 23.18476760008013,
        "RAAN(deg)": 94.99537945946284,
        "Satellite Name": "Test1 419",
        "Satellite Number": 419,
        "Semi-Major Axis(m)": 6980739.136638005,
        "Time(s)": 110
    },
    {
        "Altitude(m)": 604574.4949628765,
        "Argument of Periapsis(deg)": 0.0012502735095955685,
        "Eccentricity": 0.0,
        "Inclination(deg)": 60.0,
        "Latitude(deg)": 20.492849822727162,
        "Longitude(deg)": 6.916698158541305,
        "Mean Anomaly(deg)": 23.80487374554197,
        "RAAN(deg)": 94.99495941032309,
        "Satellite Name": "Test1 419",
        "Satellite Number": 419,
        "Semi-Major Axis(m)": 6980739.136638005,
        "Time(s)": 120
    },
    {
        "Altitude(m)": 604621.0301089215,
        "Argument of Periapsis(deg)": 0.0013544629687285324,
        "Eccentricity": 0.0,
        "Inclination(deg)": 60.0,
        "Latitude(deg)": 21.019881208676278,
        "Longitude(deg)": 7.229093370688981,
        "Mean Anomaly(deg)": 24.424979891003808,
        "RAAN(deg)": 94.99453936118334,
        "Satellite Name": "Test1 419",
        "Satellite Number": 419,
        "Semi-Major Axis(m)": 6980739.136638005,
        "Time(s)": 130
    },
    {
        "Altitude(m)": 604670.000731133,
        "Argument of Periapsis(deg)": 0.0014586524278614966,
        "Eccentricity": 0.0,
        "Inclination(deg)": 60.0,
        "Latitude(deg)": 21.546141187954532,
        "Longitude(deg)": 7.5439811108305435,
        "Mean Anomaly(deg)": 25.045086036465623,
        "RAAN(deg)": 94.99411931204361,
        "Satellite Name": "Test1 419",
        "Satellite Number": 419,
        "Semi-Major Axis(m)": 6980739.136638005,
        "Time(s)": 140
    },
    {
        "Altitude(m)": 604721.3610786028,
        "Argument of Periapsis(deg)": 0.0015628418869944607,
        "Eccentricity": 0.0,
        "Inclination(deg)": 60.0,
        "Latitude(deg)": 22.07160325072094,
        "Longitude(deg)": 7.861444225136994,
        "Mean Anomaly(deg)": 25.665192181927463,
        "RAAN(deg)": 94.99369926290386,
        "Satellite Name": "Test1 419",
        "Satellite Number": 419,
        "Semi-Major Axis(m)": 6980739.136638005,
        "Time(s)": 150
    },
    {
        "Altitude(m)": 604775.0643896366,
        "Argument of Periapsis(deg)": 0.0016670313461274247,
        "Eccentricity": 0.0,
        "Inclination(deg)": 60.0,
        "Latitude(deg)": 22.59624032160892,
        "Longitude(deg)": 8.181567673600878,
        "Mean Anomaly(deg)": 26.285298327389278,
        "RAAN(deg)": 94.99327921376413,
        "Satellite Name": "Test1 419",
        "Satellite Number": 419,
        "Semi-Major Axis(m)": 6980739.136638005,
        "Time(s)": 160
    },
    {
        "Altitude(m)": 604831.0629170638,
        "Argument of Periapsis(deg)": 0.0017712208052603888,
        "Eccentricity": 0.0,
        "Inclination(deg)": 60.0,
        "Latitude(deg)": 23.120024736187368,
        "Longitude(deg)": 8.504437577195974,
        "Mean Anomaly(deg)": 26.905404472851117,
        "RAAN(deg)": 94.99285916462438,
        "Satellite Name": "Test1 419",
        "Satellite Number": 419,
        "Semi-Major Axis(m)": 6980739.136638005,
        "Time(s)": 170
    },
    {
        "Altitude(m)": 604889.3079539969,
        "Argument of Periapsis(deg)": 0.001875410264393353,
        "Eccentricity": 0.0,
        "Inclination(deg)": 60.0,
        "Latitude(deg)": 23.642928216610628,
        "Longitude(deg)": 8.830141778947402,
        "Mean Anomaly(deg)": 27.525510618312957,
        "RAAN(deg)": 94.99243911548464,
        "Satellite Name": "Test1 419",
        "Satellite Number": 419,
        "Semi-Major Axis(m)": 6980739.136638005,
        "Time(s)": 180
    },
    {
        "Altitude(m)": 604949.7498600048,
        "Argument of Periapsis(deg)": 0.0019795997235263173,
        "Eccentricity": 0.0,
        "Inclination(deg)": 60.0,
        "Latitude(deg)": 24.164921846421663,
        "Longitude(deg)": 9.158770406034481,
        "Mean Anomaly(deg)": 28.145616763774772,
        "RAAN(deg)": 94.9920190663449,
        "Satellite Name": "Test1 419",
        "Satellite Number": 419,
        "Semi-Major Axis(m)": 6980739.136638005,
        "Time(s)": 190
    }
]